TIANLIAN 2-03           
1 53100U 22078A   24125.12643996  .00000067  00000+0  00000+0 0  9993
2 53100   1.3399 278.9627 0002558 125.2372 234.3349  1.00272551  6792
SBIRS GEO-6 (USA 336)   
1 53355U 22092A   24125.88521615 -.00000302  00000+0  00000+0 0  9990
2 53355   4.6644 311.0974 0003534  77.3696 292.4599  1.00270836  6479
EUTELSAT KONNECT VHTS   
1 53765U 22110A   24125.67896691  .00000014  00000+0  00000+0 0  9991
2 53765   0.0553  89.5386 0002507 299.9457  80.6748  1.00269590  6033
CHINASAT 1E (ZX 1E)     
1 53813U 22112A   24126.19632984 -.00000152  00000+0  00000+0 0  9992
2 53813   0.0452  57.8871 0001597 347.2373 330.5391  1.00271385  6096
SES-20                  
1 53960U 22123A   24126.16283903 -.00000103  00000+0  00000+0 0  9993
2 53960   0.0122 152.2969 0001640 282.3411 104.4163  1.00268757  5781
SES-21                  
1 53961U 22123B   24125.56526543  .00000067  00000+0  00000+0 0  9995
2 53961   0.0190  33.9841 0001024   3.9543 257.4955  1.00270911  5794
GALAXY 33 (G-33)        
1 54026U 22128A   24126.22303358  .00000077  00000+0  00000+0 0  9995
2 54026   0.0187 275.2562 0001802 121.5798 134.0287  1.00270762  5991
GALAXY 34 (G-34)        
1 54027U 22128B   24126.22249437  .00000057  00000+0  00000+0 0  9991
2 54027   0.0089 326.7485 0001430  78.9566 128.9836  1.00272768  6029
ANGOSAT 2               
1 54033U 22131A   24125.08799153  .00000133  00000+0  00000+0 0  9995
2 54033   0.0163 222.4275 0001506 250.1310 164.5738  1.00269917  5717
EUTELSAT HOTBIRD 13F    
1 54048U 22134A   24124.75067484  .00000084  00000+0  00000+0 0  9997
2 54048   0.0596 289.2042 0001888  76.1815 139.9852  1.00270993  5680
LDPE-2                  
1 54219U 22144A   24125.23521432 -.00000255  00000+0  00000+0 0  9991
2 54219   3.7188  65.1459 0001239  32.2386 163.3231  1.00622468  4045
EUTELSAT HOTBIRD 13G    
1 54225U 22146A   24124.91467733  .00000085  00000+0  00000+0 0  9997
2 54225   0.0452 247.0013 0001980 292.6131  24.9777  1.00272419  5467
CHINASAT 19 (ZX 19)     
1 54230U 22148A   24125.73313209 -.00000082  00000+0  00000+0 0  9992
2 54230   0.0422  92.4419 0003986 171.0335  26.9358  1.00271818  5612
GALAXY 31 (G-31)        
1 54243U 22153A   24125.57202198  .00000011  00000+0  00000+0 0  9999
2 54243   0.0170 253.7497 0001157 141.2275 272.8934  1.00270107  5391
GALAXY 32 (G-32)        
1 54244U 22153B   24125.47240649 -.00000177  00000+0  00000+0 0  9996
2 54244   0.0119 310.6418 0002649  74.6833 276.5854  1.00271028  5404
EUTELSAT 10B            
1 54259U 22157A   24126.07271560  .00000066  00000+0  00000+0 0  9995
2 54259   0.0535  89.9140 0001266 227.1173 302.5751  1.00270113  5293
GALAXY 35 (G-35)        
1 54741U 22170A   24125.52367007 -.00000165  00000+0  00000+0 0  9998
2 54741   0.0168 268.0206 0001342 143.8323 266.4640  1.00271533  5146
GALAXY 36 (G-36)        
1 54742U 22170B   24124.43519470 -.00000187  00000+0  00000+0 0  9995
2 54742   0.0113 190.2120 0002702 243.3508 215.9228  1.00271408  5007
METEOSAT-12 (MTG-I1)    
1 54743U 22170C   24125.82063267 -.00000008  00000+0  00000+0 0  9990
2 54743   0.4489  30.8701 0001092  33.4730  93.9657  1.00275034  5210
SHIJIAN-23 (SJ-23)      
1 55131U 23002A   24125.04910372 -.00000015  00000+0  00000+0 0  9997
2 55131   1.7187  88.2633 0001641 336.0733 247.8457  1.00063365  4924
USA 340                 
1 55138U 22144E   24123.73427541 -.00000151  00000+0  00000+0 0  9996
2 55138   3.6792  65.9589 0001256  42.4473 115.4363  0.99551404  4016
USA 342                 
1 55263U 23008A   24124.31646563  .00000137  00000+0  00000+0 0  9990
2 55263   0.0134 331.0337 0000339 286.9396 101.6824  1.00273456  4755
LDPE-3A                 
1 55264U 23008B   24125.35604750 -.00000263  00000+0  00000+0 0  9999
2 55264   1.1341  87.9020 0001262  25.4436 187.9831  1.00628024  4043
ELEKTRO-L 4             
1 55506U 23016A   24125.91926030 -.00000061  00000+0  00000+0 0  9993
2 55506   0.1410  90.9918 0001601 183.7106  85.2832  1.00269205  4567
AMAZONAS NEXUS          
1 55508U 23017A   24122.55023752 -.00000282  00000+0  00000+0 0  9997
2 55508   0.0535  87.7818 0005429 280.2728 348.9807  1.00268334  4477
CHINASAT 26 (ZX 26)     
1 55686U 23023A   24124.85564649 -.00000356  00000+0  00000+0 0  9993
2 55686   0.0705  79.0604 0003358 354.5994 221.7213  1.00273225  4462
LUCH-5X (OLYMP-K 2)     
1 55841U 23031A   24125.09354889  .00000030  00000+0  00000+0 0  9993
2 55841   0.0466  40.4729 0001452  44.0971 176.3015  1.00273700  4179
GAOFEN-13 02            
1 55912U 23036A   24125.89832456 -.00000237  00000+0  00000+0 0  9996
2 55912   2.1163 304.8879 0003475 321.6619  66.8091  1.00273064  4336
SES-18                  
1 55970U 23038A   24126.16283878 -.00000103  00000+0  00000+0 0  9993
2 55970   0.0171 266.4893 0000997  72.9543 199.6082  1.00271395  4366
SES-19                  
1 55971U 23038B   24126.23014976  .00000086  00000+0  00000+0 0  9992
2 55971   0.0394  65.1764 0001353 334.3876 131.9494  1.00271402  4338
INTELSAT 40E (IS-40E)   
1 56174U 23052A   24124.63521471 -.00000176  00000+0  00000+0 0  9990
2 56174   0.0161 215.0159 0001452 238.5058 266.1790  1.00271569  4050
VIASAT-3                
1 56370U 23060A   24125.63660503 -.00000188  00000+0  00000+0 0  9991
2 56370   0.0128 289.6597 0000374  46.1891  27.4157  1.00271683  3684
ARCTURUS                
1 56371U 23060B   24125.90337708 -.00000118  00000+0  00000+0 0  9993
2 56371   0.7746  88.9145 0001057  42.9947 134.5783  1.00272156  3706
GS-1                    
1 56372U 23060C   24113.78072464 -.00000296  00000+0  00000+0 0  9999
2 56372   0.6922  88.0291 0002419 296.7870 222.0453  0.99773097   141
BEIDOU-3 G4             
1 56564U 23066A   24125.54787892 -.00000116  00000+0  00000+0 0  9994
2 56564   2.2322 288.2181 0004573 191.1349 100.8813  1.00271358  3647
ARABSAT-7B (BADR-8)     
1 56757U 23075A   24125.24215970  .00000142  00000+0  00000+0 0  9996
2 56757   0.0765  27.8583 0005269 344.7129 323.2188  1.00270067  3378
IRNSS-1J (NVS-01)       
1 56759U 23076A   24125.53365175 -.00000344  00000+0  00000+0 0  9999
2 56759   4.1099 267.1596 0005226  22.5366 254.7877  1.00265693  3445
NUSANTARA TIGA (SATRIA) 
1 57045U 23086A   24125.53374046 -.00000238  00000+0  00000+0 0  9998
2 57045   0.0394 320.2789 0004835  19.7437 221.0235  1.00267367  3292
H2SAT (HEINRICH HERTZ)  
1 57213U 23093A   24125.67896691 -.00000002  00000+0  00000+0 0  9992
2 57213   0.0228 155.1875 0001180   6.6659 306.0854  1.00268930  3116
SYRACUSE 4B             
1 57214U 23093B   24125.09910602 -.00000057  00000+0  00000+0 0  9998
2 57214   0.0133 235.2332 0000254 244.5904 131.7489  1.00270820  3856
JUPITER 3 (ECHOSTAR 24) 
1 57479U 23108A   24124.64774656 -.00000152  00000+0  00000+0 0  9991
2 57479   0.0117 286.2253 0001196 124.4966 309.2924  1.00271416  2889
GALAXY 37 (G-37)        
1 57493U 23112A   24125.19762073  .00000046  00000+0  00000+0 0  9994
2 57493   0.0191 357.0817 0002034  47.5158 122.1234  1.00271279  2759
LUDI TANCE-4 01A        
1 57624U 23120A   24124.76577264 -.00000197  00000+0  00000+0 0  9995
2 57624  15.7916 212.7976 0003359 174.4233 200.3311  1.00270382  2783
TJS-10                  
1 58204U 23169A   24125.63141167  .00000003  00000+0  00000+0 0  9994
2 58204   0.5376  88.6564 0007009 277.5805 257.3296  1.00273447  1912
CHINASAT 6E (ZX 6E)     
1 58253U 23172A   24125.57025049 -.00000364  00000+0  00000+0 0  9996
2 58253   0.0218 275.4762 0003557 163.9031 104.3349  1.00273742  1890
YAOGAN-41               
1 58582U 23197A   24125.52381351 -.00000372  00000+0  00000+0 0  9993
2 58582   4.6952 307.7307 0018181 169.8643  57.1105  1.00275286  1550
INSAT-3DS               
1 58990U 24033A   24125.76785317 -.00000167  00000+0  00000+0 0  9994
2 58990   0.0875  88.9297 0011527 359.2861 134.3649  1.00271573  1069
MERAH PUTIH 2           
1 58995U 24035A   24126.14642618 -.00000360  00000+0  00000+0 0  9995
2 58995   0.0147 268.0706 0001433 123.3525 357.7583  1.00271149   879
TJS-11                  
1 59020U 24037A   24125.70280507 -.00000380  00000+0  00000+0 0  9995
2 59020   5.4061 321.2367 0003989 152.9347 122.1855  1.00274408   840
HULIANWAN GAOGUI-01 (H*)
1 59069U 24040A   24125.60674661  .00000154  00000+0  00000+0 0  9997
2 59069   0.0210  59.6152 0003411 342.6074  72.8586  1.00272162   824
STARLETTE               
1 07646U 75010A   24126.20612310 -.00000151  00000+0 -49169-5 0  9998
2 07646  49.8236 275.6567 0205688  29.4817 331.7495 13.82327435487600
LAGEOS 1                
1 08820U 76039A   24125.51722979  .00000014  00000+0  00000+0 0  9992
2 08820 109.8488 274.3095 0044322 108.2885 257.9157  6.38664893864147
AJISAI (EGS)            
1 16908U 86061A   24125.86940153 -.00000092  00000+0  35376-4 0  9994
2 16908  50.0118   5.3104 0011405  12.7696 110.2837 12.44505069384447
COSMOS 1989 (ETALON 1)  
1 19751U 89001C   24126.11883302  .00000047  00000+0  00000+0 0  9991
2 19751  64.5374  98.7193 0023895 215.9532 167.3564  2.13156093274965
COSMOS 2024 (ETALON 2)  
1 20026U 89039C   24126.18768192 -.00000036  00000+0  00000+0 0  9994
2 20026  65.3550 337.0269 0019317 217.2939 244.0425  2.13204309272017
LAGEOS 2                
1 22195U 92070B   24125.77740352 -.00000009  00000+0  00000+0 0  9994
2 22195  52.6784  35.4134 0137601 208.6823 178.9925  6.47293368745555
STELLA                  
1 22824U 93061B   24125.50354522 -.00000019  00000+0  10818-4 0  9999
2 22824  98.8825 171.0987 0005837 334.3082 164.9480 14.27422629594558
LARETS                  
1 27944U 03042F   24126.17559571  .00000131  00000+0  34761-4 0  9999
2 27944  98.3083 266.0912 0011133 292.6942  67.3082 14.63497882100366
LARES                   
1 38077U 12006A   24125.54202854 -.00000023  00000+0  96917-4 0  9999
2 38077  69.4893 173.7044 0007121  39.4839 320.6705 12.54931646560105
